NORAD_CAT_ID,OBJECT_NAME,OBJECT_TYPE,EPOCH,MEAN_MOTION,ECCENTRICITY,INCLINATION,RA_OF_ASC_NODE,ARG_OF_PERICENTER,MEAN_ANOMALY,BSTAR,MEAN_MOTION_DOT,MEAN_MOTION_DDOT,TLE_LINE0,TLE_LINE1,TLE_LINE2,SEMIMAJOR_AXIS,PERIOD,APOGEE,PERIGEE,DECAYED
52706.0,STARLINK-3970,PAYLOAD,2023-06-13 12:33:23,15.08841701,0.0001308,53.2193,304.0456,77.0376,283.0762,3.7129e-05,3.03e-06,0.0,0 STARLINK-3970,1 52706U 22053BC  23164.52318482  .00000303  00000-0  37129-4 0  9993,2 52706  53.2193 304.0456 0001308  77.0376 283.0762 15.08841701 60323,6917.875,95.437,540.645,538.835,0.0
52706.0,STARLINK-3970,PAYLOAD,2023-06-14 02:51:51,15.08841065,0.0001225,53.219,301.3689,79.0719,281.0411,-1.7404e-05,-5.65e-06,0.0,0 STARLINK-3970,1 52706U 22053BC  23165.11934625 -.00000565  00000-0 -17404-4 0  9998,2 52706  53.2190 301.3689 0001225  79.0719 281.0411 15.08841065 59981,6917.877,95.437,540.59,538.895,0.0
52706.0,STARLINK-3970,PAYLOAD,2023-06-14 12:24:10,15.08838843,0.0001067,53.217,299.5831,84.2885,275.8229,-1.4062e-06,-3.1e-06,0.0,0 STARLINK-3970,1 52706U 22053BC  23165.51678616 -.00000310  00000-0 -14062-5 0  9993,2 52706  53.2170 299.5831 0001067  84.2885 275.8229 15.08838843 60476,6917.884,95.438,540.487,539.011,0.0
52706.0,STARLINK-3970,PAYLOAD,2023-06-15 09:04:11,15.08825515,0.0001032,53.2174,295.7162,92.0908,268.0202,9.8633e-05,1.282e-05,0.0,0 STARLINK-3970,1 52706U 22053BC  23166.37791201  .00001282  00000-0  98633-4 0  9996,2 52706  53.2174 295.7162 0001032  92.0908 268.0202 15.08825515 60174,6917.925,95.438,540.504,539.076,0.0
52706.0,STARLINK-3970,PAYLOAD,2023-06-15 13:50:20,15.08835787,0.0001052,53.2179,294.8251,77.6912,282.4198,2.7398e-05,1.48e-06,0.0,0 STARLINK-3970,1 52706U 22053BC  23166.57662899  .00000148  00000-0  27398-4 0  9998,2 52706  53.2179 294.8251 0001052  77.6912 282.4198 15.08835787 60631,6917.893,95.438,540.486,539.031,0.0
52706.0,STARLINK-3970,PAYLOAD,2023-06-15 15:25:43,15.08839369,9.44e-05,53.2179,294.527,83.0257,277.0842,3.689e-05,2.99e-06,0.0,0 STARLINK-3970,1 52706U 22053BC  23166.64286624  .00000299  00000-0  36890-4 0  9998,2 52706  53.2179 294.5270 0000944  83.0257 277.0842 15.08839369 60211,6917.882,95.438,540.4,539.094,0.0
52706.0,STARLINK-3970,PAYLOAD,2023-06-16 12:05:43,15.08848622,8.81e-05,53.2179,290.6606,90.2015,269.9079,0.00016773,2.383e-05,0.0,0 STARLINK-3970,1 52706U 22053BC  23167.50397620  .00002383  00000-0  16773-3 0  9996,2 52706  53.2179 290.6606 0000881  90.2015 269.9079 15.08848622 60778,6917.854,95.437,540.328,539.11,0.0
52706.0,STARLINK-3970,PAYLOAD,2023-06-16 15:16:29,15.08856202,9.18e-05,53.2179,290.0674,70.426,289.6832,0.00024749,3.655e-05,0.0,0 STARLINK-3970,1 52706U 22053BC  23167.63644974  .00003655  00000-0  24749-3 0  9992,2 52706  53.2179 290.0674 0000918  70.4260 289.6832 15.08856202 60364,6917.831,95.437,540.331,539.061,0.0
52706.0,STARLINK-3970,PAYLOAD,2023-06-17 00:48:49,15.08830775,0.0001269,53.2177,288.2819,85.9943,274.1194,5.2957e-05,5.55e-06,0.0,0 STARLINK-3970,1 52706U 22053BC  23168.03391101  .00000555  00000-0  52957-4 0  9997,2 52706  53.2177 288.2819 0001269  85.9943 274.1194 15.08830775 60425,6917.909,95.438,540.651,538.896,0.0
52706.0,STARLINK-3970,PAYLOAD,2023-06-17 10:21:10,15.08813232,0.0001076,53.2177,286.4978,93.2783,266.8332,-9.4332e-05,-1.788e-05,0.0,0 STARLINK-3970,1 52706U 22053BC  23168.43136995 -.00001788  00000-0 -94332-4 0  9993,2 52706  53.2177 286.4978 0001076  93.2783 266.8332 15.08813232 60916,6917.962,95.439,540.572,539.083,0.0
52706.0,STARLINK-3970,PAYLOAD,2023-06-17 16:42:41,15.08822199,8.83e-05,53.2173,285.3088,98.6549,261.4544,-0.00019595,-3.403e-05,0.0,0 STARLINK-3970,1 52706U 22053BC  23168.69631780 -.00003403  00000-0 -19595-3 0  9996,2 52706  53.2173 285.3088 0000883  98.6549 261.4544 15.08822199 60521,6917.935,95.439,540.411,539.189,0.0
52706.0,STARLINK-3970,PAYLOAD,2023-06-18 00:39:37,15.08828947,8.91e-05,53.2173,283.8234,98.1332,261.9761,-5.6891e-05,-1.193e-05,0.0,0 STARLINK-3970,1 52706U 22053BC  23169.02751793 -.00001193  00000-0 -56891-4 0  9996,2 52706  53.2173 283.8234 0000891  98.1332 261.9761 15.08828947 60579,6917.914,95.438,540.396,539.163,0.0
52706.0,STARLINK-3970,PAYLOAD,2023-06-18 11:47:19,15.08837758,0.0001009,53.2169,281.742,109.5085,250.6016,0.00015957,2.253e-05,0.0,0 STARLINK-3970,1 52706U 22053BC  23169.49119609  .00002253  00000-0  15957-3 0  9994,2 52706  53.2169 281.7420 0001009 109.5085 250.6016 15.08837758 61076,6917.887,95.438,540.45,539.054,0.0
52706.0,STARLINK-3970,PAYLOAD,2023-06-19 00:30:24,15.08845441,7.63e-05,53.2172,279.3622,90.9963,269.1117,0.00038358,5.823e-05,0.0,0 STARLINK-3970,1 52706U 22053BC  23170.02111598  .00005823  00000-0  38358-3 0  9990,2 52706  53.2172 279.3622 0000763  90.9963 269.1117 15.08845441 60727,6917.864,95.437,540.257,539.201,0.0
52706.0,STARLINK-3970,PAYLOAD,2023-06-19 13:13:29,15.08858537,7.72e-05,53.2167,276.9835,90.6066,269.5014,0.00059077,9.132e-05,0.0,0 STARLINK-3970,1 52706U 22053BC  23170.55103355  .00009132  00000-0  59077-3 0  9998,2 52706  53.2167 276.9835 0000772  90.6066 269.5014 15.08858537 61238,6917.824,95.436,540.223,539.155,0.0
52706.0,STARLINK-3970,PAYLOAD,2023-06-19 19:35:01,15.0887005,7.97e-05,53.2165,275.7939,87.692,272.4163,0.00081821,0.00012769,0.0,0 STARLINK-3970,1 52706U 22053BC  23170.81598794  .00012769  00000-0  81821-3 0  9994,2 52706  53.2165 275.7939 0000797  87.6920 272.4163 15.08870050 61276,6917.789,95.436,540.205,539.102,0.0
52706.0,STARLINK-3970,PAYLOAD,2023-06-20 00:21:11,15.08835463,0.0002647,53.2169,274.9022,95.7295,264.3999,-0.00018684,-3.261e-05,0.0,0 STARLINK-3970,1 52706U 22053BC  23171.01471890 -.00003261  00000-0 -18684-3 0  9990,2 52706  53.2169 274.9022 0002647  95.7295 264.3999 15.08835463 60876,6917.894,95.438,541.59,537.928,0.0
52706.0,STARLINK-3970,PAYLOAD,2023-06-20 06:42:43,15.08839234,5.23e-05,53.2161,273.7127,105.8507,254.2543,-0.0001981,-3.439e-05,0.0,0 STARLINK-3970,1 52706U 22053BC  23171.27967153 -.00003439  00000-0 -19810-3 0  9999,2 52706  53.2161 273.7127 0000523 105.8507 254.2543 15.08839234 61347,6917.883,95.438,540.11,539.386,0.0
52706.0,STARLINK-3970,PAYLOAD,2023-06-20 13:04:16,15.08842361,3.31e-05,53.2159,272.5235,121.1848,238.9177,0.00012309,1.672e-05,0.0,0 STARLINK-3970,1 52706U 22053BC  23171.54463074  .00001672  00000-0  12309-3 0  9993,2 52706  53.2159 272.5235 0000331 121.1848 238.9177 15.08842361 60950,6917.873,95.437,539.967,539.509,0.0
52706.0,STARLINK-3970,PAYLOAD,2023-06-21 12:55:03,15.08847646,7.88e-05,53.2161,268.063,95.5139,264.5943,0.00016111,2.278e-05,0.0,0 STARLINK-3970,1 52706U 22053BC  23172.53823089  .00002278  00000-0  16111-3 0  9997,2 52706  53.2161 268.0630 0000788  95.5139 264.5943 15.08847646 61537,6917.857,95.437,540.267,539.177,0.0
52706.0,STARLINK-3970,PAYLOAD,2023-06-22 09:35:04,15.08839064,8.57e-05,53.2163,264.1979,97.9913,262.1177,0.00012708,1.735e-05,0.0,0 STARLINK-3970,1 52706U 22053BC  23173.39935555  .00001735  00000-0  12708-3 0  9999,2 52706  53.2163 264.1979 0000857  97.9913 262.1177 15.08839064 61230,6917.883,95.438,540.341,539.155,0.0
52706.0,STARLINK-3970,PAYLOAD,2023-06-23 14:12:00,15.08851557,7.44e-05,53.2163,258.8446,81.7785,278.3291,0.00029146,4.355e-05,0.0,0 STARLINK-3970,1 52706U 22053BC  23174.59166968  .00004355  00000-0  29146-3 0  9991,2 52706  53.2163 258.8446 0000744  81.7785 278.3291 15.08851557 61419,6917.845,95.437,540.225,539.195,0.0
52706.0,STARLINK-3970,PAYLOAD,2023-06-23 22:08:55,15.08847023,6.3e-05,53.2159,257.3573,84.4415,275.6648,0.00018653,2.683e-05,0.0,0 STARLINK-3970,1 52706U 22053BC  23174.92287032  .00002683  00000-0  18653-3 0  9997,2 52706  53.2159 257.3573 0000630  84.4415 275.6648 15.08847023 61467,6917.859,95.437,540.16,539.288,0.0
52706.0,STARLINK-3970,PAYLOAD,2023-06-24 15:38:10,15.08844149,8.82e-05,53.216,254.0881,91.4548,268.6545,0.00011744,1.582e-05,0.0,0 STARLINK-3970,1 52706U 22053BC  23175.65151270  .00001582  00000-0  11744-3 0  9993,2 52706  53.2160 254.0881 0000882  91.4548 268.6545 15.08844149 61575,6917.868,95.437,540.343,539.123,0.0
52706.0,STARLINK-3970,PAYLOAD,2023-06-24 21:59:43,15.08836562,7.58e-05,53.2158,252.8968,87.6905,272.4174,-1.3368e-05,-5e-06,0.0,0 STARLINK-3970,1 52706U 22053BC  23175.91647536 -.00000500  00000-0 -13368-4 0  9993,2 52706  53.2158 252.8968 0000758  87.6905 272.4174 15.08836562 61616,6917.891,95.438,540.28,539.232,0.0
52706.0,STARLINK-3970,PAYLOAD,2023-06-25 15:28:57,15.08851969,8.88e-05,53.2159,249.6275,86.0051,274.1043,0.00040723,6.201e-05,0.0,0 STARLINK-3970,1 52706U 22053BC  23176.64511177  .00006201  00000-0  40723-3 0  9991,2 52706  53.2159 249.6275 0000888  86.0051 274.1043 15.08851969 61725,6917.844,95.437,540.323,539.095,0.0
52706.0,STARLINK-3970,PAYLOAD,2023-06-25 21:50:30,15.08835772,1.85e-05,53.2155,248.4359,202.7265,157.3719,-2.7209e-05,-7.2e-06,0.0,0 STARLINK-3970,1 52706U 22053BC  23176.91007275 -.00000720  00000-0 -27209-4 0  9997,2 52706  53.2155 248.4359 0000185 202.7265 157.3719 15.08835772 61765,6917.893,95.438,539.886,539.63,0.0
52706.0,STARLINK-3970,PAYLOAD,2023-06-27 10:24:23,15.08844166,8.32e-05,53.2152,241.5981,92.6756,267.4331,0.00044388,6.784e-05,0.0,0 STARLINK-3970,1 52706U 22053BC  23178.43360093  .00006784  00000-0  44388-3 0  9996,2 52706  53.2152 241.5981 0000832  92.6756 267.4331 15.08844166 61992,6917.868,95.437,540.308,539.157,0.0
52706.0,STARLINK-3970,PAYLOAD,2023-06-28 03:53:37,15.08839148,8.76e-05,53.2155,238.3272,88.9254,271.1839,0.00015036,2.106e-05,0.0,0 STARLINK-3970,1 52706U 22053BC  23179.16224288  .00002106  00000-0  15036-3 0  9994,2 52706  53.2155 238.3272 0000876  88.9254 271.1839 15.08839148 62104,6917.883,95.438,540.354,539.142,0.0
52706.0,STARLINK-3970,PAYLOAD,2023-06-29 10:05:57,15.08845301,8.49e-05,53.2156,232.676,89.4979,270.611,0.00012871,1.762e-05,0.0,0 STARLINK-3970,1 52706U 22053BC  23180.42080107  .00001762  00000-0  12871-3 0  9996,2 52706  53.2156 232.6760 0000849  89.4979 270.6110 15.08845301 62298,6917.864,95.437,540.317,539.142,0.0
